FENGYUN 1C DEB          
1 31977U 99025CPE 17343.26143615  .00000439  00000-0  38227-3 0  9999
2 31977  98.1943 149.9463 0303581 240.6946 116.3556 13.71248290522924
